IRIDIUM 921             
1 24873U 97034E   24244.06722824  .00068885  00000+0  14099-2 0  9993
2 24873  86.3737 250.8594 0001743  65.7822 294.3617 15.45849353486724
IRIDIUM 26              
1 24903U 97043A   24244.42224164  .00001873  00000+0  63163-3 0  9992
2 24903  86.3936 232.1746 0002267  84.6208 275.5248 14.36535813415131
IRIDIUM 22              
1 24907U 97043E   24244.39683514  .00001677  00000+0  57772-3 0  9991
2 24907  86.3934 235.4813 0002321  90.5057 269.6405 14.35414612415190
DUMMY MASS 1            
1 24925U 97048A   24244.46306175  .00001122  00000+0  12405-3 0  9998
2 24925  86.3295 269.1962 0009233  93.0145 267.2136 14.86377575462081
DUMMY MASS 2            
1 24926U 97048B   24244.10795417  .00001092  00000+0  12140-3 0  9993
2 24926  86.3297 270.9179 0009965 102.5385 257.6954 14.86134144461812
IRIDIUM 29              
1 24944U 97051A   24244.30639661  .00001465  00000+0  49923-3 0  9990
2 24944  86.3901 265.3992 0002493  94.7512 265.3969 14.35863378411660
IRIDIUM 33              
1 24946U 97051C   24244.12540086  .00000743  00000+0  25693-3 0  9990
2 24946  86.3816 264.7222 0006177 317.0484  43.0229 14.34476025411150
IRIDIUM 28              
1 24948U 97051E   24244.12113522  .00001097  00000+0  36512-3 0  9998
2 24948  86.3906 263.1556 0001993  82.3666 277.7757 14.36815802412188
